JILIN-1 07              
1 43159U 18008E   26204.59850322  .00008625  00000+0  25397-3 0  9996
2 43159  97.1773 223.5682 0006173 289.7452  70.3126 15.35268604470583
JILIN-1 08              
1 43160U 18008F   26204.55970550  .00005933  00000+0  18220-3 0  9996
2 43160  97.1810 222.8048 0004413 316.0448  44.0444 15.34081112470520
S-NET D                 
1 43186U 18014G   26204.15093561  .00004975  00000+0  25535-3 0  9997
2 43186  97.5321 108.7180 0006294 249.6107 110.4450 15.16969037464215
S-NET B                 
1 43187U 18014H   26204.55888388  .00004990  00000+0  25628-3 0  9991
2 43187  97.5325 109.1111 0006972 242.5259 117.5266 15.16942437464276
S-NET A                 
1 43188U 18014J   26204.54539009  .00005060  00000+0  25950-3 0  9991
2 43188  97.5337 109.3133 0006866 243.2437 116.8094 15.16981596464274
S-NET C                 
1 43189U 18014K   26204.29910192  .00004606  00000+0  23685-3 0  9998
2 43189  97.5354 109.1489 0008326 236.3882 123.6557 15.16930275462788
PAZ                     
1 43215U 18020A   26204.59804071  .00001663  00000+0  82379-4 0  9992
2 43215  97.4460 211.4673 0001717  86.8037 273.3394 15.19146941466535
GOES 17                 
1 43226U 18022A   26204.59457845 -.00000179  00000+0  00000+0 0  9997
2 43226   1.0278  85.1400 0000716  57.4315 283.3017  1.00271882 30785
LKW-4                   
1 43236U 18025A   26204.42684267  .00047455  00000+0  48081-3 0  9995
2 43236  97.6360  18.2264 0003630 160.5738 199.5660 15.65123506465696
ZHUHAI-1 OVS-02         
1 43440U 18040B   26204.57683111  .00007648  00000+0  30474-3 0  9999
2 43440  97.0390 219.6569 0005627 115.7631 244.4189 15.25460444458269
ZHUHAI-1 OHS-02         
1 43441U 18040C   26204.60657995  .00008998  00000+0  34802-3 0  9993
2 43441  97.0368 226.6605 0011503 100.7092 259.5444 15.26361705119838
GAOFEN-6                
1 43484U 18048A   26204.60042147  .00000860  00000+0  13115-3 0  9999
2 43484  98.0950 267.3218 0011903  58.1067 302.1299 14.76391401438766
LUOJIA-1 01             
1 43485U 18048B   26204.63731484  .00002378  00000+0  26873-3 0  9993
2 43485  97.8088 282.2399 0009034  12.1115 348.0316 14.87403063439634
PAKTES 1A               
1 43529U 18056A   26204.58074792  .00003048  00000+0  25447-3 0  9998
2 43529  98.1309   2.6232 0019185 354.9989   5.1038 14.99234488437374
PRSS-1                  
1 43530U 18056B   26204.64904623  .00000528  00000+0  72964-4 0  9999
2 43530  97.7801 271.5064 0001326  93.2413 266.8953 14.82037360433832
HAIYANG-1C              
1 43609U 18068A   26204.59313899  .00000434  00000+0  17027-3 0  9996
2 43609  98.5173 276.3721 0010617 353.8718   6.2335 14.34189582412309
SSTL S1-4               
1 43618U 18071A   26204.60367847  .00001436  00000+0  13220-3 0  9998
2 43618  97.4992  74.6933 0002814  84.8664 275.2879 14.96222738428386
HAIYANG-2B              
1 43655U 18081A   26204.57744351 -.00000153  00000+0 -10597-3 0  9996
2 43655  99.3301 212.7853 0001244 136.3750 223.7500 13.79306896389948
CFOSAT                  
1 43662U 18083A   26204.58430294  .00002888  00000+0  15234-3 0  9993
2 43662  97.3620 208.0455 0001288  38.1861 321.9463 15.16332092427957
TEN-KOH                 
1 43677U 18084G   26204.47334499  .00001885  00000+0  14468-3 0  9992
2 43677  98.0772  38.3658 0009407   7.0574 353.0780 15.03076228421612
DIWATA-2B               
1 43678U 18084H   26204.57958789  .00001830  00000+0  14994-3 0  9992
2 43678  98.1225  42.3836 0012274  58.3697 301.8722 15.00585830421675
STARS-AO                
1 43679U 18084J   26204.08252746  .00006156  00000+0  31164-3 0  9993
2 43679  98.0472  60.2697 0003363  65.1896 294.9685 15.17407191422918
AUTCUBE 2               
1 43681U 18084K   26204.07565430  .00003291  00000+0  20517-3 0  9999
2 43681  98.0689  52.1544 0007484 283.6661  76.3733 15.10300588422345
METOP-C                 
1 43689U 18087A   26204.59908137  .00000064  00000+0  48954-4 0  9993
2 43689  98.6623 263.5331 0002071  82.8940 277.2473 14.21504488400003
ES'HAIL 2               
1 43700U 18090A   26204.54610483  .00000000  00000+0  00000+0 0  9995
2 43700   0.0186  49.6880 0002701 107.0586   6.9459  1.00273645 28048
MOHAMMED VI-B           
1 43717U 18095A   26204.62210558  .00000764  00000+0  11533-3 0  9990
2 43717  97.9539 276.4419 0001817  90.1584 269.9835 14.77089039413562
HYSIS                   
1 43719U 18096A   26204.61811230  .00001543  00000+0  21785-3 0  9992
2 43719  97.9821 271.0769 0001666  72.9753 287.1640 14.78625061412809
COSMOS 2530 (RODNIK-S *)
1 43751U 18097A   26204.60051698 -.00000090  00000+0 -71895-3 0  9997
2 43751  82.5132 199.6814 0018603 320.0321  39.9388 12.42881616346811
COSMOS 2531 (RODNIK-S *)
1 43752U 18097B   26204.62188866 -.00000013  00000+0 -16611-3 0  9998
2 43752  82.5177 200.7389 0016188 340.4945  19.5514 12.42913151346833
