OBJECT_NAME,OBJECT_ID,EPOCH,MEAN_MOTION,ECCENTRICITY,INCLINATION,RA_OF_ASC_NODE,ARG_OF_PERICENTER,MEAN_ANOMALY,EPHEMERIS_TYPE,CLASSIFICATION_TYPE,NORAD_CAT_ID,ELEMENT_SET_NO,REV_AT_EPOCH,BSTAR,MEAN_MOTION_DOT,MEAN_MOTION_DDOT
JILIN-1 07,2018-008E,2026-07-23T14:21:50.678208,15.35268604,.00061733,97.1773,223.5682,289.7452,70.3126,0,U,43159,999,47058,.25396926E-3,.8625E-4,0
JILIN-1 08,2018-008F,2026-07-23T13:25:58.555200,15.34081112,.0004413,97.1810,222.8048,316.0448,44.0444,0,U,43160,999,47052,.18219691E-3,.5933E-4,0
S-NET D,2018-014G,2026-07-23T03:37:20.836704,15.16969037,.00062946,97.5321,108.7180,249.6107,110.4450,0,U,43186,999,46421,.25534545E-3,.4975E-4,0
S-NET B,2018-014H,2026-07-23T13:24:47.567232,15.16942437,.00069727,97.5325,109.1111,242.5259,117.5266,0,U,43187,999,46427,.2562799E-3,.499E-4,0
S-NET A,2018-014J,2026-07-23T13:05:21.703776,15.16981596,.00068663,97.5337,109.3133,243.2437,116.8094,0,U,43188,999,46427,.25949625E-3,.506E-4,0
S-NET C,2018-014K,2026-07-23T07:10:42.405888,15.16930275,.00083263,97.5354,109.1489,236.3882,123.6557,0,U,43189,999,46278,.23684698E-3,.4606E-4,0
PAZ,2018-020A,2026-07-23T14:21:10.717344,15.19146941,.00017179,97.4460,211.4673,86.8037,273.3394,0,U,43215,999,46653,.82378773E-4,.1663E-4,0
GOES 17,2018-022A,2026-07-23T14:16:11.578080,1.00271882,.00007161,1.0278,85.1400,57.4315,283.3017,0,U,43226,999,3078,0,-.179E-5,0
LKW-4,2018-025A,2026-07-23T10:14:39.206688,15.65123506,.00036304,97.6360,18.2264,160.5738,199.5660,0,U,43236,999,46569,.48081416E-3,.47455E-3,0
ZHUHAI-1 OVS-02,2018-040B,2026-07-23T13:50:38.207904,15.25460444,.0005627,97.0390,219.6569,115.7631,244.4189,0,U,43440,999,45826,.30474439E-3,.7648E-4,0
ZHUHAI-1 OHS-02,2018-040C,2026-07-23T14:33:28.507680,15.26361705,.0011503,97.0368,226.6605,100.7092,259.5444,0,U,43441,999,11983,.34801707E-3,.8998E-4,0
GAOFEN-6,2018-048A,2026-07-23T14:24:36.415008,14.76391401,.00119036,98.0950,267.3218,58.1067,302.1299,0,U,43484,999,43876,.13114633E-3,.86E-5,0
LUOJIA-1 01,2018-048B,2026-07-23T15:17:44.002176,14.87403063,.00090341,97.8088,282.2399,12.1115,348.0316,0,U,43485,999,43963,.26873006E-3,.2378E-4,0
PAKTES 1A,2018-056A,2026-07-23T13:56:16.620288,14.99234488,.00191858,98.1309,2.6232,354.9989,5.1038,0,U,43529,999,43737,.25447113E-3,.3048E-4,0
PRSS-1,2018-056B,2026-07-23T15:34:37.594272,14.82037360,.00013266,97.7801,271.5064,93.2413,266.8953,0,U,43530,999,43383,.72963863E-4,.528E-5,0
HAIYANG-1C,2018-068A,2026-07-23T14:14:07.208736,14.34189582,.00106179,98.5173,276.3721,353.8718,6.2335,0,U,43609,999,41230,.17027408E-3,.434E-5,0
SSTL S1-4,2018-071A,2026-07-23T14:29:17.819808,14.96222738,.00028148,97.4992,74.6933,84.8664,275.2879,0,U,43618,999,42838,.13219773E-3,.1436E-4,0
HAIYANG-2B,2018-081A,2026-07-23T13:51:31.119264,13.79306896,.0001244,99.3301,212.7853,136.3750,223.7500,0,U,43655,999,38994,-.10596503E-3,-.153E-5,0
CFOSAT,2018-083A,2026-07-23T14:01:23.774016,15.16332092,.00012887,97.3620,208.0455,38.1861,321.9463,0,U,43662,999,42795,.1523371E-3,.2888E-4,0
TEN-KOH,2018-084G,2026-07-23T11:21:37.007136,15.03076228,.00094077,98.0772,38.3658,7.0574,353.0780,0,U,43677,999,42161,.14467866E-3,.1885E-4,0
DIWATA-2B,2018-084H,2026-07-23T13:54:36.393696,15.00585830,.00122747,98.1225,42.3836,58.3697,301.8722,0,U,43678,999,42167,.14994292E-3,.183E-4,0
STARS-AO,2018-084J,2026-07-23T01:58:50.372544,15.17407191,.00033634,98.0472,60.2697,65.1896,294.9685,0,U,43679,999,42291,.31163882E-3,.6156E-4,0
AUTCUBE 2,2018-084K,2026-07-23T01:48:56.531520,15.10300588,.00074846,98.0689,52.1544,283.6661,76.3733,0,U,43681,999,42234,.20516712E-3,.3291E-4,0
METOP-C,2018-087A,2026-07-23T14:22:40.630368,14.21504488,.00020719,98.6623,263.5331,82.8940,277.2473,0,U,43689,999,40000,.4895437E-4,.64E-6,0
ES'HAIL 2,2018-090A,2026-07-23T13:06:23.457312,1.00273645,.00027018,0.0186,49.6880,107.0586,6.9459,0,U,43700,999,2804,0,0,0
MOHAMMED VI-B,2018-095A,2026-07-23T14:55:49.922112,14.77089039,.00018172,97.9539,276.4419,90.1584,269.9835,0,U,43717,999,41356,.11532838E-3,.764E-5,0
HYSIS,2018-096A,2026-07-23T14:50:04.902720,14.78625061,.00016661,97.9821,271.0769,72.9753,287.1640,0,U,43719,999,41280,.21784946E-3,.1543E-4,0
COSMOS 2530 (RODNIK-S 16),2018-097A,2026-07-23T14:24:44.667072,12.42881616,.00186039,82.5132,199.6814,320.0321,39.9388,0,U,43751,999,34681,-.71895477E-3,-.9E-6,0
COSMOS 2531 (RODNIK-S 17),2018-097B,2026-07-23T14:55:31.180224,12.42913151,.00161887,82.5177,200.7389,340.4945,19.5514,0,U,43752,999,34683,-.16611496E-3,-.13E-6,0
